NORAD_CAT_ID,OBJECT_NAME,OBJECT_TYPE,EPOCH,MEAN_MOTION,ECCENTRICITY,INCLINATION,RA_OF_ASC_NODE,ARG_OF_PERICENTER,MEAN_ANOMALY,BSTAR,MEAN_MOTION_DOT,MEAN_MOTION_DDOT,TLE_LINE0,TLE_LINE1,TLE_LINE2,SEMIMAJOR_AXIS,PERIOD,APOGEE,PERIGEE,DECAYED
53014.0,STARLINK-4183,PAYLOAD,2022-12-02 11:02:27,15.08825288,0.0001843,53.2187,40.7322,54.9333,305.1832,0.00037284,5.648e-05,0.0,0 STARLINK-4183,1 53014U 22076AE  22336.46004330  .00005648  00000-0  37284-3 0  9996,2 53014  53.2187  40.7322 0001843  54.9333 305.1832 15.08825288 23310,6917.925,95.438,541.065,538.515,0.0
53014.0,STARLINK-4183,PAYLOAD,2022-12-03 10:53:15,15.08831222,0.0001764999999999,53.2178,36.2728,47.0785,313.0355,-5.0696e-06,-3.69e-06,0.0,0 STARLINK-4183,1 53014U 22076AE  22337.45364986 -.00000369  00000-0 -50696-5 0  9993,2 53014  53.2178  36.2728 0001765  47.0785 313.0355 15.08831222 22993,6917.906999999997,95.438,540.993,538.5509999999998,0.0
53014.0,STARLINK-4183,PAYLOAD,2022-12-03 15:39:24,15.08830722,0.0001793,53.2173,35.3808,45.2663,314.8475,-1.4367e-05,-5.17e-06,0.0,0 STARLINK-4183,1 53014U 22076AE  22337.65237120 -.00000517  00000-0 -14367-4 0  9993,2 53014  53.2173  35.3808 0001793  45.2663 314.8475 15.08830722 23495,6917.909000000002,95.438,541.014,538.533,0.0
53014.0,STARLINK-4183,PAYLOAD,2022-12-04 10:44:02,15.08833561,0.000166,53.2173,31.8119,39.5212,320.5901,0.00014359,1.998e-05,0.0,0 STARLINK-4183,1 53014U 22076AE  22338.44724553  .00001998  00000-0  14359-3 0  9994,2 53014  53.2173  31.8119 0001660  39.5212 320.5901 15.08833561 23616,6917.9,95.438,540.913,538.617,0.0
53014.0,STARLINK-4183,PAYLOAD,2022-12-04 15:30:11,15.08834253,0.0001884,53.2173,30.9196,42.2053,317.9084,-1.4661e-05,-5.21e-06,0.0,0 STARLINK-4183,1 53014U 22076AE  22338.64597003 -.00000521  00000-0 -14661-4 0  9994,2 53014  53.2173  30.9196 0001884  42.2053 317.9084 15.08834253 23175,6917.898,95.438,541.066,538.46,0.0
53014.0,STARLINK-4183,PAYLOAD,2022-12-05 10:34:49,15.08835261,0.0001968,53.218,27.35,43.731,316.3838,0.00011449,1.534e-05,0.0,0 STARLINK-4183,1 53014U 22076AE  22339.44084759  .00001534  00000-0  11449-3 0  9995,2 53014  53.2180  27.3500 0001968  43.7310 316.3838 15.08835261 23290,6917.895,95.438,541.121,538.398,0.0
53014.0,STARLINK-4183,PAYLOAD,2022-12-05 20:07:08,15.08835711,0.0001991,53.2179,25.5661,43.7662,316.3488,9.7612e-05,1.265e-05,0.0,0 STARLINK-4183,1 53014U 22076AE  22339.83828909  .00001265  00000-0  97612-4 0  9999,2 53014  53.2179  25.5661 0001991  43.7662 316.3488 15.08835711 23822,6917.893,95.438,541.136,538.381,0.0
53014.0,STARLINK-4183,PAYLOAD,2022-12-06 13:36:22,15.08838645,0.0001846,53.2188,22.2958,52.5325,307.5835,-1.441e-05,-5.17e-06,0.0,0 STARLINK-4183,1 53014U 22076AE  22340.56693164 -.00000517  00000-0 -14410-4 0  9990,2 53014  53.2188  22.2958 0001846  52.5325 307.5835 15.08838645 23465,6917.885,95.438,541.0269999999998,538.472,0.0
53014.0,STARLINK-4183,PAYLOAD,2022-12-07 02:19:28,15.08836423,0.0001786,53.2185,19.9175,44.0745,316.0389,2.2996e-05,7.8e-07,0.0,0 STARLINK-4183,1 53014U 22076AE  22341.09685246  .00000078  00000-0  22996-4 0  9999,2 53014  53.2185  19.9175 0001786  44.0745 316.0389 15.08836423 24014,6917.891,95.438,540.992,538.521,0.0
53014.0,STARLINK-4183,PAYLOAD,2022-12-07 19:48:42,15.08838498,0.0001972,53.218,16.6479,44.1953,315.9197,3.9456e-05,3.4e-06,0.0,0 STARLINK-4183,1 53014U 22076AE  22341.82549473  .00000340  00000-0  39456-4 0  9992,2 53014  53.2180  16.6479 0001972  44.1953 315.9197 15.08838498 23657,6917.885,95.438,541.114,538.386,0.0
53014.0,STARLINK-4183,PAYLOAD,2022-12-08 11:42:34,15.08838027,0.0001843,53.2183,13.6734,40.4783,319.6346,-4.3732e-07,-2.95e-06,0.0,0 STARLINK-4183,1 53014U 22076AE  22342.48789693 -.00000295  00000-0 -43732-6 0  9990,2 53014  53.2183  13.6734 0001843  40.4783 319.6346 15.08838027 23754,6917.886,95.438,541.026,538.476,0.0
53014.0,STARLINK-4183,PAYLOAD,2022-12-08 19:39:30,15.08832283,0.0002315,53.2177,12.188,40.9375,319.1791,1.1562e-05,-1.04e-06,0.0,0 STARLINK-4183,1 53014U 22076AE  22342.81910276 -.00000104  00000-0  11562-4 0  9992,2 53014  53.2177  12.1880 0002315  40.9375 319.1791 15.08832283 24275,6917.904,95.438,541.37,538.1669999999998,0.0
53014.0,STARLINK-4183,PAYLOAD,2022-12-09 19:30:20,15.08770851,0.0002736,53.2177,7.7279,296.3865,63.6846,-0.00046759,-7.709e-05,0.0,0 STARLINK-4183,1 53014U 22076AE  22343.81274216 -.00007709  00000-0 -46759-3 0  9994,2 53014  53.2177   7.7279 0002736 296.3865  63.6846 15.08770851 24426,6918.092,95.442,541.85,538.064,0.0
53014.0,STARLINK-4183,PAYLOAD,2022-12-10 06:37:59,15.08814921,0.0001531999999999,53.2179,5.6459,309.2318,50.8538,0.00038653,5.865e-05,0.0,0 STARLINK-4183,1 53014U 22076AE  22344.27638325  .00005865  00000-0  38653-3 0  9993,2 53014  53.2179   5.6459 0001532 309.2318  50.8538 15.08814921 24495,6917.956999999999,95.439,540.882,538.762,0.0
53014.0,STARLINK-4183,PAYLOAD,2022-12-10 08:13:22,15.08835682,0.0001745,53.218,5.3495,27.6561,332.4524,7.0004e-05,8.26e-06,0.0,0 STARLINK-4183,1 53014U 22076AE  22344.34262440  .00000826  00000-0  70004-4 0  9991,2 53014  53.2180   5.3495 0001745  27.6561 332.4524 15.08835682 24032,6917.894,95.438,540.966,538.5509999999998,0.0
53014.0,STARLINK-4183,PAYLOAD,2022-12-10 12:59:31,15.0883887,0.0001804,53.2171,4.4557,22.6376,337.4695,8.9232e-05,1.132e-05,0.0,0 STARLINK-4183,1 53014U 22076AE  22344.54134205  .00001132  00000-0  89232-4 0  9994,2 53014  53.2171   4.4557 0001804  22.6376 337.4695 15.08838870 24537,6917.884,95.438,540.997,538.501,0.0
53014.0,STARLINK-4183,PAYLOAD,2022-12-11 04:53:23,15.0881329,0.0002247,53.218,1.4838,314.2949,45.7858,0.00043185,6.587e-05,0.0,0 STARLINK-4183,1 53014U 22076AE  22345.20374239  .00006587  00000-0  43185-3 0  9996,2 53014  53.2180   1.4838 0002247 314.2949  45.7858 15.08813290 24634,6917.962,95.439,541.381,538.273,0.0
53014.0,STARLINK-4183,PAYLOAD,2022-12-11 11:14:55,15.08846167,0.0001758,53.2178,0.2901,41.334,318.7785,9.3258e-05,1.197e-05,0.0,0 STARLINK-4183,1 53014U 22076AE  22345.46869762  .00001197  00000-0  93258-4 0  9993,2 53014  53.2178   0.2901 0001758  41.3340 318.7785 15.08846167 24673,6917.861999999999,95.437,540.943,538.51,0.0
53014.0,STARLINK-4183,PAYLOAD,2022-12-12 07:54:56,15.08839533,0.0001901,53.2178,356.4241,40.8318,319.2816,5.5495e-05,5.95e-06,0.0,0 STARLINK-4183,1 53014U 22076AE  22346.32982194  .00000595  00000-0  55495-4 0  9996,2 53014  53.2178 356.4241 0001901  40.8318 319.2816 15.08839533 24800,6917.882,95.438,541.062,538.432,0.0
53014.0,STARLINK-4183,PAYLOAD,2022-12-13 07:45:43,15.08845063,0.000191,53.2177,351.9634,43.7453,316.3691,6.7527e-06,-1.81e-06,0.0,0 STARLINK-4183,1 53014U 22076AE  22347.32341633 -.00000181  00000-0  67527-5 0  9996,2 53014  53.2177 351.9634 0001910  43.7453 316.3691 15.08845063 24485,6917.865,95.437,541.0509999999998,538.409,0.0
53014.0,STARLINK-4183,PAYLOAD,2022-12-13 17:18:02,15.08841842,0.000196,53.217,350.1795,39.8298,320.2838,-8.2084e-05,-1.594e-05,0.0,0 STARLINK-4183,1 53014U 22076AE  22347.72086021 -.00001594  00000-0 -82084-4 0  9991,2 53014  53.2170 350.1795 0001960  39.8298 320.2838 15.08841842 25013,6917.875,95.437,541.096,538.384,0.0
53014.0,STARLINK-4183,PAYLOAD,2022-12-14 09:11:53,15.08842465,0.0001974,53.2166,347.2058,38.5565,321.5568,4.7167e-05,4.63e-06,0.0,0 STARLINK-4183,1 53014U 22076AE  22348.38325528  .00000463  00000-0  47167-4 0  9997,2 53014  53.2166 347.2058 0001974  38.5565 321.5568 15.08842465 24649,6917.873000000001,95.437,541.1030000000002,538.372,0.0
53014.0,STARLINK-4183,PAYLOAD,2022-12-14 17:08:49,15.08836242,0.0001583,53.2168,345.7191,50.4951,309.6181,-8.0563e-06,-4.16e-06,0.0,0 STARLINK-4183,1 53014U 22076AE  22348.71446120 -.00000416  00000-0 -80563-5 0  9994,2 53014  53.2168 345.7191 0001583  50.4951 309.6181 15.08836242 24699,6917.892,95.438,540.852,538.6619999999998,0.0
53014.0,STARLINK-4183,PAYLOAD,2022-12-14 23:30:21,15.08834922,0.0001672,53.2167,344.5296,32.433,327.6765,-3.3299e-06,-3.41e-06,0.0,0 STARLINK-4183,1 53014U 22076AE  22348.97942096 -.00000341  00000-0 -33299-5 0  9996,2 53014  53.2167 344.5296 0001672  32.4330 327.6765 15.08834922 25200,6917.896,95.438,540.918,538.604,0.0
53014.0,STARLINK-4183,PAYLOAD,2022-12-15 12:13:26,15.08840267,0.0001788,53.2177,342.1514,34.4607,325.6501,4.1994e-05,3.8e-06,0.0,0 STARLINK-4183,1 53014U 22076AE  22349.50933763  .00000380  00000-0  41994-4 0  9998,2 53014  53.2177 342.1514 0001788  34.4607 325.6501 15.08840267 24816,6917.88,95.438,540.981,538.508,0.0
53014.0,STARLINK-4183,PAYLOAD,2022-12-15 16:59:35,15.08843555,0.0001817,53.2176,341.2593,34.5934,325.5176,0.00012343,1.677e-05,0.0,0 STARLINK-4183,1 53014U 22076AE  22349.70805316  .00001677  00000-0  12343-3 0  9997,2 53014  53.2176 341.2593 0001817  34.5934 325.5176 15.08843555 24842,6917.87,95.437,540.991,538.4780000000002,0.0
53014.0,STARLINK-4183,PAYLOAD,2022-12-15 23:21:08,15.08847443,0.0001795,53.2178,340.0699,33.9274,326.1833,8.9323e-05,1.134e-05,0.0,0 STARLINK-4183,1 53014U 22076AE  22349.97301095  .00001134  00000-0  89323-4 0  9992,2 53014  53.2178 340.0699 0001795  33.9274 326.1833 15.08847443 25357,6917.858,95.437,540.964,538.481,0.0
53014.0,STARLINK-4183,PAYLOAD,2022-12-16 08:53:26,15.08849236,0.0001955,53.2181,338.2845,41.261,318.8529,0.00012539,1.708e-05,0.0,0 STARLINK-4183,1 53014U 22076AE  22350.37044862  .00001708  00000-0  12539-3 0  9995,2 53014  53.2181 338.2845 0001955  41.2610 318.8529 15.08849236 24943,6917.852,95.437,541.07,538.365,0.0
53014.0,STARLINK-4183,PAYLOAD,2022-12-16 16:50:22,15.08844975,0.0001929,53.2174,336.7971,41.1087,319.005,4.0675e-05,3.59e-06,0.0,0 STARLINK-4183,1 53014U 22076AE  22350.70165211  .00000359  00000-0  40675-4 0  9998,2 53014  53.2174 336.7971 0001929  41.1087 319.0050 15.08844975 24998,6917.865,95.437,541.065,538.396,0.0
